     2.10           NAVIGATION DATA     GPS(GPS)            RINEX VERSION / TYPE
cnvtToRINEX 2.11.0  Stan Thomas         31-Mar-11 19:15 UTC PGM / RUN BY / DATE 
----------------------------------------------------------- COMMENT             
    0.2142D-07  0.7451D-08 -0.1192D-06  0.0000D+00          ION ALPHA           
    0.1229D+06  0.0000D+00 -0.2621D+06  0.1966D+06          ION BETA            
    0.279396772385D-08 0.710542735760D-14   405504       93 DELTA-UTC: A0,A1,T,W
    15                                                      LEAP SECONDS        
                                                            END OF HEADER       
24 11  3 30  0  0  0.0 0.377375632524D-03 0.306954461848D-11 0.000000000000D+00
    0.490000000000D+02 0.480625000000D+02 0.473984029052D-08-0.190333623209D+01
    0.249408185482D-05 0.597669207491D-02 0.869296491146D-05 0.515372235107D+04
    0.259200000000D+06-0.502914190292D-07 0.188445404708D+00 0.186264514923D-07
    0.948895276246D+00 0.208375000000D+03-0.299206873590D+00-0.815783980677D-08
    0.473233997810D-09 0.100000000000D+01 0.162900000000D+04 0.000000000000D+00
    0.240000000000D+01 0.000000000000D+00-0.139698386192D-08 0.490000000000D+02
    0.252018000000D+06 0.400000000000D+01 0.000000000000D+00 0.000000000000D+00
23 11  3 30  0  0  0.0 0.316818710417D-03-0.250111042988D-11 0.000000000000D+00
    0.860000000000D+02-0.521875000000D+01 0.438661129140D-08-0.117876078816D+01
   -0.484287738800D-06 0.707648182288D-02 0.947713851929D-05 0.515357366753D+04
    0.259200000000D+06 0.484287738800D-07 0.224084316265D+01-0.894069671631D-07
    0.964886401586D+00 0.198093750000D+03 0.313109790458D+01-0.793925927344D-08
   -0.169292766009D-09 0.100000000000D+01 0.162900000000D+04 0.000000000000D+00
    0.240000000000D+01 0.000000000000D+00-0.200234353542D-07 0.860000000000D+02
    0.252018000000D+06 0.400000000000D+01 0.000000000000D+00 0.000000000000D+00
31 11  3 30  0  0  0.0 0.596139580011D-04 0.500222085975D-11 0.000000000000D+00
    0.200000000000D+02 0.635937500000D+02 0.411124267833D-08-0.291321667316D+01
    0.342354178429D-05 0.779647694435D-02 0.814348459244D-05 0.515363260841D+04
    0.259200000000D+06-0.279396772385D-07-0.299770884686D+01 0.152736902237D-06
    0.979605006172D+00 0.233000000000D+03-0.970079553033D+00-0.776818071876D-08
    0.280011663610D-09 0.100000000000D+01 0.162900000000D+04 0.000000000000D+00
    0.240000000000D+01 0.000000000000D+00-0.130385160446D-07 0.200000000000D+02
    0.252018000000D+06 0.400000000000D+01 0.000000000000D+00 0.000000000000D+00
14 11  3 30  0  0  0.0 0.140691176057D-03 0.238742359215D-11 0.000000000000D+00
    0.580000000000D+02-0.137812500000D+02 0.401981029838D-08-0.435753029948D+00
   -0.672414898872D-06 0.561477860902D-02 0.100955367088D-04 0.515364957428D+04
    0.259200000000D+06-0.558793544769D-07 0.228527107917D+01 0.745058059692D-07
    0.983226550578D+00 0.199656250000D+03-0.209282820839D+01-0.783639784600D-08
   -0.253581991279D-09 0.100000000000D+01 0.162900000000D+04 0.000000000000D+00
    0.240000000000D+01 0.000000000000D+00-0.884756445885D-08 0.580000000000D+02
    0.252018000000D+06 0.400000000000D+01 0.000000000000D+00 0.000000000000D+00
20 11  3 29 23 59 44.0 0.487961806357D-04 0.113686837722D-12 0.000000000000D+00
    0.100000000000D+01 0.343750000000D+00 0.543272629486D-08 0.167166052582D+01
   -0.167638063431D-07 0.469791062642D-02 0.470131635666D-05 0.515369073486D+04
    0.259184000000D+06-0.651925802231D-07 0.114526596650D+01-0.931322574615D-07
    0.933625795228D+00 0.273218750000D+03 0.128279592356D+01-0.861678749521D-08
   -0.146434671020D-10 0.100000000000D+01 0.162900000000D+04 0.000000000000D+00
    0.240000000000D+01 0.000000000000D+00-0.791624188423D-08 0.100000000000D+01
    0.252018000000D+06 0.400000000000D+01 0.000000000000D+00 0.000000000000D+00
11 11  3 30  0  0  0.0-0.138474162668D-03-0.306954461848D-11 0.000000000000D+00
    0.830000000000D+02 0.314687500000D+02 0.588774524822D-08-0.280249371413D+01
    0.154785811901D-05 0.116658912739D-01 0.981986522675D-05 0.515350658417D+04
    0.259200000000D+06 0.447034835815D-07-0.115667508027D+00-0.633299350739D-07
    0.888464607111D+00 0.150125000000D+03 0.917642458463D+00-0.848285334489D-08
    0.353586156854D-09 0.100000000000D+01 0.162900000000D+04 0.000000000000D+00
    0.240000000000D+01 0.000000000000D+00-0.116415321827D-07 0.830000000000D+02
    0.252018000000D+06 0.400000000000D+01 0.000000000000D+00 0.000000000000D+00
30 11  3 30  0  0  0.0 0.332973897457D-03 0.284217094304D-11 0.000000000000D+00
    0.120000000000D+02-0.163437500000D+02 0.493591988659D-08-0.291716839817D+00
   -0.661239027977D-06 0.125956878765D-01 0.374391674995D-05 0.515365500259D+04
    0.259200000000D+06-0.124797224998D-06-0.200237081506D+01 0.223517417908D-07
    0.959609704350D+00 0.305937500000D+03 0.151999225549D+01-0.868750472659D-08
   -0.339299847486D-10 0.100000000000D+01 0.162900000000D+04 0.000000000000D+00
    0.240000000000D+01 0.000000000000D+00-0.791624188423D-08 0.120000000000D+02
    0.252018000000D+06 0.400000000000D+01 0.000000000000D+00 0.000000000000D+00
16 11  3 30  0  0  0.0-0.161346979439D-03-0.284217094304D-11 0.000000000000D+00
    0.660000000000D+02-0.264687500000D+02 0.448554398377D-08 0.101249410368D+01
   -0.127777457237D-05 0.630544207525D-02 0.347755849361D-05 0.515377403259D+04
    0.259200000000D+06 0.651925802231D-07-0.192639863529D+01 0.279396772385D-07
    0.975227117027D+00 0.314500000000D+03-0.152714024146D+00-0.825427239501D-08
   -0.196079596074D-09 0.100000000000D+01 0.162900000000D+04 0.000000000000D+00
    0.240000000000D+01 0.000000000000D+00-0.977888703346D-08 0.660000000000D+02
    0.252018000000D+06 0.400000000000D+01 0.000000000000D+00 0.000000000000D+00
13 11  3 30  0  0  0.0 0.277149491012D-03-0.147792889038D-11 0.000000000000D+00
    0.480000000000D+02 0.843750000000D+00 0.380873007747D-08-0.418939100964D+00
   -0.165775418282D-06 0.465087231714D-02 0.104401260614D-04 0.515362376785D+04
    0.259200000000D+06-0.316649675369D-07 0.230908425047D+01-0.372529029846D-08
    0.990174227954D+00 0.196937500000D+03 0.180049259665D+01-0.770782106169D-08
   -0.212866009581D-09 0.100000000000D+01 0.162900000000D+04 0.000000000000D+00
    0.240000000000D+01 0.000000000000D+00-0.111758708954D-07 0.480000000000D+02
    0.252018000000D+06 0.400000000000D+01 0.000000000000D+00 0.000000000000D+00
 4 11  3 30  0  0  0.0 0.741435214877D-04 0.102318153949D-10 0.000000000000D+00
    0.620000000000D+02 0.405312500000D+02 0.504199573365D-08 0.179082006611D+01
    0.208057463169D-05 0.957318197470D-02 0.925920903683D-05 0.515362239456D+04
    0.259200000000D+06-0.145286321640D-06 0.135927220589D+00-0.111758708954D-07
    0.938696847143D+00 0.192625000000D+03 0.716131163315D+00-0.831677499849D-08
    0.336085427879D-09 0.100000000000D+01 0.162900000000D+04 0.000000000000D+00
    0.240000000000D+01 0.000000000000D+00-0.605359673500D-08 0.620000000000D+02
    0.253002000000D+06 0.400000000000D+01 0.000000000000D+00 0.000000000000D+00
 7 11  3 30  0  0  0.0 0.680331140757D-05 0.909494701773D-12 0.000000000000D+00
    0.390000000000D+02 0.720937500000D+02 0.426589197724D-08-0.292525653723D+01
    0.376626849174D-05 0.424114556517D-02 0.770576298237D-05 0.515366996193D+04
    0.259200000000D+06-0.204890966415D-07-0.299870121002D+01-0.279396772385D-07
    0.974433772164D+00 0.240937500000D+03-0.311759294707D+01-0.793533053837D-08
    0.307869966877D-09 0.100000000000D+01 0.162900000000D+04 0.000000000000D+00
    0.240000000000D+01 0.000000000000D+00-0.107102096081D-07 0.390000000000D+02
    0.255852000000D+06 0.400000000000D+01 0.000000000000D+00 0.000000000000D+00
 6 11  3 30  0  0  0.0-0.200254376978D-03-0.118120624393D-09 0.000000000000D+00
    0.250000000000D+02-0.723750000000D+02 0.498270754977D-08 0.815431097681D+00
   -0.401586294174D-05 0.661902211141D-02 0.877305865288D-05 0.515365501595D+04
    0.259200000000D+06 0.838190317154D-07-0.965122073300D+00-0.104308128357D-06
    0.935628215551D+00 0.197125000000D+03-0.836584414733D+00-0.836499129261D-08
   -0.283226083217D-09 0.100000000000D+01 0.162900000000D+04 0.000000000000D+00
    0.240000000000D+01 0.000000000000D+00-0.465661287308D-08 0.250000000000D+02
    0.256398000000D+06 0.400000000000D+01 0.000000000000D+00 0.000000000000D+00
 3 11  3 30  0  0  0.0 0.695066526532D-03 0.511590769747D-11 0.000000000000D+00
    0.160000000000D+02-0.667500000000D+02 0.519271629748D-08-0.125850201105D+01
   -0.339187681675D-05 0.140452794731D-01 0.847317278385D-05 0.515365179825D+04
    0.259200000000D+06 0.240281224251D-06-0.103829652757D+01 0.320374965668D-06
    0.928416342484D+00 0.196500000000D+03 0.107965469922D+01-0.842320800328D-08
   -0.313941648358D-09 0.100000000000D+01 0.162900000000D+04 0.000000000000D+00
    0.240000000000D+01 0.000000000000D+00-0.419095158577D-08 0.160000000000D+02
    0.256488000000D+06 0.400000000000D+01 0.000000000000D+00 0.000000000000D+00
10 11  3 30  0  0  0.0-0.701993703842D-04-0.102318153949D-11 0.000000000000D+00
    0.350000000000D+02 0.143750000000D+01 0.515021452711D-08 0.760735851542D+00
    0.856816768646D-07 0.101251868764D-01 0.501051545143D-05 0.515358467865D+04
    0.259200000000D+06-0.800937414169D-07 0.120390599026D+01 0.121071934700D-06
    0.949560516298D+00 0.277281250000D+03 0.703884243673D+00-0.856071373095D-08
   -0.184650548579D-09 0.100000000000D+01 0.162900000000D+04 0.000000000000D+00
    0.240000000000D+01 0.000000000000D+00-0.279396772385D-08 0.350000000000D+02
    0.257526000000D+06 0.400000000000D+01 0.000000000000D+00 0.000000000000D+00
